COSMOS 2251 DEB         
1 37280U 93036BHU 26199.79044595  .00001188  00000+0  51698-3 0  9990
2 37280  74.0293  26.8617 0133659 102.2214 259.3936 14.20391230604187
COSMOS 2251 DEB         
1 37284U 93036BHY 26194.54216729  .00000567  00000+0  27740-3 0  9993
2 37284  74.0128 139.6685 0161628 241.2178 242.5105 14.13670016621811
COSMOS 2251 DEB         
1 37292U 93036BJG 26191.96040927  .00000833  00000+0  44084-3 0  9996
2 37292  74.1304  45.2513 0207480 355.5805   4.3490 14.04772104627999
COSMOS 2251 DEB         
1 37293U 93036BJH 26193.50771415  .00001128  00000+0  31457-3 0  9990
2 37293  73.9179 243.6316 0063338 105.7053 255.1104 14.46300245684343
COSMOS 2251 DEB         
1 37295U 93036BJK 26199.49290284  .00000851  00000+0  15725-3 0  9998
2 37295  74.0054 221.3703 0046069 343.1657  16.7979 14.66449732854956
COSMOS 2251 DEB         
1 37305U 93036BJV 26183.93403544  .00001584  00000+0  53858-3 0  9990
2 37305  73.8689 275.2142 0046616 196.0449 163.9230 14.36847763697702
COSMOS 2251 DEB         
1 37312U 93036BKC 26198.29909558  .00000606  00000+0  17437-3 0  9996
2 37312  74.0307 159.6884 0018726 216.0416 143.9481 14.46798323892954
COSMOS 2251 DEB         
1 37316U 93036BKG 26199.68859426  .00015576  00000+0  99115-3 0  9997
2 37316  74.0146 296.3254 0026968 321.2323  38.6933 15.08487263894155
COSMOS 2251 DEB         
1 37320U 93036BKL 26199.57773663  .00002009  00000+0  25688-3 0  9999
2 37320  74.0457 149.1050 0044620 183.0820 177.0089 14.81416843693709
COSMOS 2251 DEB         
1 37326U 93036BKS 26198.95873251  .00000654  00000+0  13196-3 0  9995
2 37326  74.0235 278.4493 0057111 352.3005   7.7278 14.62607851886580
COSMOS 2251 DEB         
1 37330U 93036BKW 26197.51845797  .00000428  00000+0  93331-4 0  9994
2 37330  74.0159 242.9428 0056844  34.9535 325.5341 14.60145532895175
COSMOS 2251 DEB         
1 37331U 93036BKX 26197.26905904  .00000438  00000+0  15777-3 0  9992
2 37331  74.0730  33.4761 0055864 355.2675   4.7942 14.35692298878520
COSMOS 2251 DEB         
1 37336U 93036BLC 26195.56845889  .00000046  00000+0  26155-4 0  9991
2 37336  74.0430 300.8220 0030553 326.6197  33.3027 14.32840340681829
COSMOS 2251 DEB         
1 37340U 93036BLG 26197.40081903  .00000155  00000+0  60897-4 0  9992
2 37340  74.0235 240.3097 0019613 287.1625  72.7381 14.37142612871652
COSMOS 2251 DEB         
1 37483U 93036BLL 26195.47791249  .00000244  00000+0  76146-4 0  9999
2 37483  73.9743 104.4442 0093442 262.2104  96.8436 14.43889309683640
COSMOS 2251 DEB         
1 37484U 93036BLM 26188.36251367  .00001565  00000+0  47357-3 0  9990
2 37484  73.8206 180.1859 0037838 179.1600 250.3621 14.42810642683580
COSMOS 2251 DEB         
1 37486U 93036BLP 26198.02818582  .00001440  00000+0  59523-3 0  9994
2 37486  73.6894  82.7454 0219502 278.8343 143.7817 14.15544817664288
COSMOS 2251 DEB         
1 37487U 93036BLQ 26195.47127108  .00015582  00000+0  14810-2 0  9999
2 37487  73.8951 122.5175 0028441 260.8822  98.9142 14.93172929844235
COSMOS 2251 DEB         
1 37491U 93036BLU 26198.56512528  .00000843  00000+0  62604-3 0  9990
2 37491  73.9057 270.4217 0312350 222.8939 134.7438 13.75904590587282
COSMOS 2251 DEB         
1 37496U 93036BLZ 26195.83862415  .00009204  00000+0  65314-3 0  9996
2 37496  73.9446 245.0472 0052210 209.8480 149.9729 15.03739199692251
COSMOS 2251 DEB         
1 37498U 93036BMB 26199.07813100  .00001802  00000+0  41240-3 0  9993
2 37498  74.0357 132.0178 0011198 154.1068 206.0659 14.56375279685170
COSMOS 2251 DEB         
1 37499U 93036BMC 26197.92920072  .00000141  00000+0  59200-4 0  9994
2 37499  74.0384 286.3521 0028857 311.3011  48.5656 14.34519997882494
COSMOS 2251 DEB         
1 37528U 93036BNH 26188.14309164  .00001016  00000+0  26247-3 0  9990
2 37528  74.0368  94.0246 0020642 191.7887 168.2794 14.51145376889240
COSMOS 2251 DEB         
1 37530U 93036BNK 26199.03547747  .00000187  00000+0  75115-4 0  9991
2 37530  74.0366 295.6007 0027782 307.2259 226.3142 14.34753791883484
COSMOS 2251 DEB         
1 37531U 93036BNL 26186.79146939  .00007177  00000+0  12379-2 0  9996
2 37531  74.0044 229.3282 0036088 267.1216  92.5823 14.68223231730571
COSMOS 2251 DEB         
1 37532U 93036BNM 26199.68588932  .00000256  00000+0  84914-4 0  9999
2 37532  74.0495 171.6820 0016381 225.1285 313.9710 14.42726728880586
COSMOS 2251 DEB         
1 37533U 93036BNN 26199.19324242  .00000801  00000+0  39149-3 0  9993
2 37533  74.0672 168.0526 0156776 173.3063 187.0225 14.13282725659923
COSMOS 2251 DEB         
1 37535U 93036BNQ 26199.78053167  .00001154  00000+0  24684-3 0  9995
2 37535  74.0220  17.6358 0027596  98.6592 280.8008 14.59733761885056
COSMOS 2251 DEB         
1 37537U 93036BNS 26199.73649733  .00000158  00000+0  60354-4 0  9990
2 37537  74.0096 223.2588 0052479 311.5013  48.1642 14.37739220881666
COSMOS 2251 DEB         
1 37546U 93036BPB 26198.94845793  .00007707  00000+0  83788-3 0  9998
2 37546  74.0194  26.5815 0004487  38.8949 321.2553 14.88224451691111
COSMOS 2251 DEB         
1 37959U 93036BPJ 26198.45054740  .00001170  00000+0  24840-3 0  9998
2 37959  74.0106   3.5236 0057079  91.1416 299.9535 14.59287644832872
COSMOS 2251 DEB         
1 37960U 93036BPK 26199.63696633  .00000454  00000+0  21014-3 0  9998
2 37960  74.0582 164.7562 0245955 131.6688 230.5794 14.08575568804738
COSMOS 2251 DEB         
1 37961U 93036BPL 26193.40774085  .00001718  00000+0  36354-3 0  9993
2 37961  74.0403  94.0075 0039390 121.7063 238.7953 14.59594078831523
COSMOS 2251 DEB         
1 37967U 93036BPS 26199.11416455  .00001463  00000+0  39629-3 0  9992
2 37967  74.0133  93.9660 0148018 180.2184 179.8934 14.42307334678688
COSMOS 2251 DEB         
1 37968U 93036BPT 26185.35197608  .00010132  00000+0  67245-3 0  9998
2 37968  73.9963 214.4169 0077314 279.2312  80.0138 15.04856619632788
COSMOS 2251 DEB         
1 37969U 93036BPU 26199.80285130  .00002911  00000+0  75209-3 0  9997
2 37969  73.9748 246.2215 0106752  32.0809 328.6786 14.47029823546183
COSMOS 2251 DEB         
1 37971U 93036BPW 26193.15055345  .00004011  00000+0  98470-3 0  9993
2 37971  73.9923   3.6219 0069404  87.8187 273.0919 14.51223585637424
COSMOS 2251 DEB         
1 37975U 93036BQA 26198.51429126  .00007342  00000+0  80292-3 0  9997
2 37975  73.9965 254.9362 0072553 193.9186 165.9996 14.86069184729563
COSMOS 2251 DEB         
1 37985U 93036BQL 26198.77833442  .00000012  00000+0  13266-4 0  9991
2 37985  74.0232 227.3512 0022541 299.2317  60.6581 14.35541775680317
COSMOS 2251 DEB         
1 37988U 93036BQP 26199.70480427  .00001657  00000+0  26571-3 0  9997
2 37988  74.0633 321.8586 0062553 304.5147  55.0127 14.71283388265994
COSMOS 2251 DEB         
1 37993U 93036BQU 26198.48599387  .00002045  00000+0  41020-3 0  9991
2 37993  74.0218 112.1138 0021195 151.1927 209.0416 14.62258440684833
COSMOS 2251 DEB         
1 37994U 93036BQV 26199.46972553  .00000271  00000+0  94276-4 0  9992
2 37994  74.0340 233.4714 0024511 265.0138  94.8218 14.40034170801986
COSMOS 2251 DEB         
1 37996U 93036BQX 26196.36995847  .00003411  00000+0  14363-2 0  9997
2 37996  74.0601 184.3991 0222568 245.6019 112.1753 14.13668011591658
COSMOS 2251 DEB         
1 37998U 93036BQZ 26197.67765619  .00000640  00000+0  18596-3 0  9990
2 37998  74.0350 192.2817 0020335 222.2532 137.7061 14.46234716674086
COSMOS 2251 DEB         
1 38001U 93036BRC 26196.08409825  .00001863  00000+0  23646-3 0  9994
2 38001  73.9982  68.9942 0063041 165.5180 344.8540 14.81099860778792
COSMOS 2251 DEB         
1 38006U 93036BRH 26199.67453887  .00002634  00000+0  68405-3 0  9993
2 38006  73.8470 345.5659 0066234 253.2505 106.1378 14.48944833661140
COSMOS 2251 DEB         
1 38054U 93036BRL 26199.61788881  .00001556  00000+0  13241-2 0  9994
2 38054  73.9530 268.9452 0348365 204.6542 309.7141 13.63607018701487
COSMOS 2251 DEB         
1 38055U 93036BRM 26198.54191265  .00001726  00000+0  22867-3 0  9994
2 38055  74.0084 140.0819 0064718 215.1311 263.5993 14.79321367638860
COSMOS 2251 DEB         
1 38056U 93036BRN 26199.58028140  .00002608  00000+0  15547-2 0  9997
2 38056  73.9188 262.5296 0275740 207.5231 151.1069 13.90558453673009
COSMOS 2251 DEB         
1 38058U 93036BRQ 26186.03887262  .00005119  00000+0  38109-2 0  9992
2 38058  74.0020 318.2310 0399775 159.1560 202.6391 13.63185985611127
COSMOS 2251 DEB         
1 38060U 93036BRS 26197.39366860  .00000695  00000+0  13293-3 0  9994
2 38060  74.0401 241.0030 0060239 293.0039  66.4782 14.64846871751219
COSMOS 2251 DEB         
1 38062U 93036BRU 26197.39432094  .00012068  00000+0  82619-3 0  9994
2 38062  74.0027 210.8421 0018514 289.7612 135.2256 15.05998024662655
COSMOS 2251 DEB         
1 38064U 93036BRW 26199.32451620  .00001233  00000+0  27300-3 0  9995
2 38064  74.0209  70.5029 0046388 135.7105 224.7787 14.57653276750341
COSMOS 2251 DEB         
1 38067U 93036BRZ 26179.95477672  .00000843  00000+0  16941-3 0  9995
2 38067  74.0153 254.9016 0071034 352.8114 183.8695 14.61740235654516
COSMOS 2251 DEB         
1 38068U 93036BSA 26199.61740339  .00000224  00000+0  85354-4 0  9992
2 38068  74.0207 267.7941 0027339 305.5742  54.2863 14.36299730697748
COSMOS 2251 DEB         
1 38197U 93036BSM 26187.32837464  .00026226  00000+0  29655-2 0  9996
2 38197  73.9362 310.6222 0104705 136.0837 224.8724 14.82423942887934
COSMOS 2251 DEB         
1 38199U 93036BSP 26197.97385195  .00000168  00000+0  15060-3 0  9992
2 38199  73.9565  66.8261 0366487 310.8819  46.1068 13.65124164639725
COSMOS 2251 DEB         
1 38208U 93036BSY 26199.74753199  .00009094  00000+0  88532-3 0  9994
2 38208  74.0029   2.7326 0007009  64.5149 309.8974 14.92616424744037
COSMOS 2251 DEB         
1 38212U 93036BTC 26198.15841968  .00000846  00000+0  11176-3 0  9991
2 38212  74.0514  11.7192 0091492  20.4965 339.9843 14.78921433845087
COSMOS 2251 DEB         
1 38220U 93036BTL 26197.84465762  .00016863  00000+0  10767-2 0  9999
2 38220  74.0097 347.5894 0002370  85.7842 274.3621 15.08650936746139
